KUIPER-00044            
1 64505U 25134F   25205.23813566 -.00266927  00000+0 -11864-1 0  9997
2 64505  51.8675 183.2622 0010997 222.9261 137.0861 15.22151374  5482
KUIPER-00046            
1 64506U 25134G   25205.20130135 -.00005562  00000+0 -17238-3 0  9998
2 64506  51.8652 183.0238 0009306 217.7576 142.2756 15.30706090  5506
KUIPER-00047            
1 64507U 25134H   25205.20179864  .00030097  00000+0  90192-3 0  9990
2 64507  51.8624 183.0167 0010323 240.8813 119.1139 15.34198722  5508
KUIPER-00048            
1 64508U 25134J   25205.16272882  .00039978  00000+0  11183-2 0  9999
2 64508  51.8747 182.7939 0002551 212.8983 147.1845 15.36268597  5504
KUIPER-00049            
1 64509U 25134K   25205.18114530  .00034641  00000+0  10000-2 0  9996
2 64509  51.8709 182.9046 0006584 218.8077 141.2437 15.35335801  5946
KUIPER-00050            
1 64510U 25134L   25204.66330089  .00027727  00000+0  80944-3 0  9991
2 64510  51.8717 185.4358 0006819 214.9901 145.0638 15.35096482  5882
KUIPER-00051            
1 64511U 25134M   25204.65442844  .00023763  00000+0  68839-3 0  9999
2 64511  51.8718 185.3812 0004927 204.0948 155.9808 15.35436488  5880
KUIPER-00052            
1 64512U 25134N   25205.25003472  .00029188  00000+0  76445-3 0  9996
2 64512  51.8745 182.2001 0003166 228.3996 340.5748 15.38462612  5519
